STARLINK-2637           
1 48356U 21038D   26068.04850982  .00008368  00000+0  30201-3 0  9991
2 48356  53.1538   1.1174 0001281  68.0058 292.1078 15.29352936266981
TOMORROW-S1             
1 60479U 24149M   26068.72470524  .00008620  00000+0  28856-3 0  9996
2 60479  97.3791 149.6044 0001819 207.2040 152.9106 15.31198362 86867
